[ {"name": "STARLINK-5818", "line1": "1 55785U 23028AW  26198.07914638  .00000266  00000+0  30058-4 0  9992", "line2": "2 55785  69.9981 238.3692 0003219 270.5931  89.4860 14.98329838186408"}, {"name": "STARLINK-5823", "line1": "1 55786U 23028AX  26198.16668980 -.00022504  00000+0 -18830-2 0  9992", "line2": "2 55786  70.0001 238.0729 0003581 264.3580 275.2396 14.98353325  5706"}, {"name": "STARLINK-5811", "line1": "1 55787U 23028AY  26198.07496742 -.00000158  00000+0 -54353-5 0  9992", "line2": "2 55787  69.9982 238.3542 0003674 268.2693  91.8045 14.98332299186406"}, {"name": "STARLINK-5804", "line1": "1 55788U 23028AZ  26198.07079492 -.00000137  00000+0 -37231-5 0  9995", "line2": "2 55788  69.9986 238.3400 0003371 265.1776  94.8998 14.98329958186404"}, {"name": "STARLINK-5815", "line1": "1 55789U 23028BA  26197.57843052 -.00000103  00000+0 -78796-6 0  9996", "line2": "2 55789  69.9979 239.4300 0003763 268.6688  91.4040 14.98329877186336"}, {"name": "STARLINK-5813", "line1": "1 55790U 23028BB  26197.51601316 -.00000642  00000+0 -45978-4 0  9999", "line2": "2 55790  69.9984 239.6157 0003071 265.6461  94.4347 14.98331128186328"}, {"name": "STARLINK-5807", "line1": "1 55791U 23028BC  26197.52836588  .00000164  00000+0  21594-4 0  9997", "line2": "2 55791  69.9979 239.6567 0004129 266.1782  93.8904 14.98329840186325"}, {"name": "STARLINK-5856", "line1": "1 55914U 23037A   26197.60463939  .00000004  00000+0  81481-5 0  9994", "line2": "2 55914  70.0000 339.5679 0002796 269.5308  90.5530 14.98330597183487"}, {"name": "STARLINK-5859", "line1": "1 55915U 23037B   26197.78822345 -.00000052  00000+0  34416-5 0  9994", "line2": "2 55915  70.0008 339.0040 0003133 266.6052  93.4748 14.98329914183500"}, {"name": "STARLINK-5796", "line1": "1 55916U 23037C   26197.60046522  .00000273  00000+0  30657-4 0  9997", "line2": "2 55916  69.9999 339.5530 0003182 267.3680  92.7115 14.98329240182797"}, {"name": "STARLINK-5867", "line1": "1 55918U 23037E   26197.79657192 -.00000451  00000+0 -29976-4 0  9992", "line2": "2 55918  70.0003 339.0337 0003110 265.2386  94.8418 14.98332463182823"}, {"name": "STARLINK-5871", "line1": "1 55919U 23037F   26197.65486779 -.00000220  00000+0 -10619-4 0  9997", "line2": "2 55919  70.0009 339.3414 0003093 266.6584  93.4221 14.98328821182802"}, {"name": "STARLINK-5862", "line1": "1 55920U 23037G   26197.72542277  .00000053  00000+0  12200-4 0  9993", "line2": "2 55920  70.0002 319.3076 0002837 276.8242  83.2595 14.98333494183307"}, {"name": "STARLINK-5861", "line1": "1 55921U 23037H   26197.77152580 -.00000742  00000+0 -54414-4 0  9993", "line2": "2 55921  70.0010 338.9464 0003100 266.9921  93.0883 14.98334176182826"}, {"name": "STARLINK-5863", "line1": "1 55922U 23037J   26197.77570132 -.00000365  00000+0 -22838-4 0  9997", "line2": "2 55922  70.0009 338.9610 0002950 267.4855  92.5966 14.98329857182828"}, {"name": "STARLINK-5854", "line1": "1 55923U 23037K   26197.64637093 -.00000265  00000+0 -14447-4 0  9990", "line2": "2 55923  70.0005 339.3102 0003358 269.1579  90.9195 14.98323684182807"}, {"name": "STARLINK-5849", "line1": "1 55924U 23037L   26197.58771713 -.00000080  00000+0  11322-5 0  9996", "line2": "2 55924  70.0007 319.6295 0003367 267.3173  92.7600 14.98330262183288"}, {"name": "STARLINK-5922", "line1": "1 55925U 23037M   26197.83410911 -.00000410  00000+0 -26539-4 0  9998", "line2": "2 55925  70.0009 338.7627 0003147 264.7852  95.2948 14.98334615182832"}, {"name": "STARLINK-5921", "line1": "1 55926U 23037N   26197.51260914 -.00000062  00000+0  26176-5 0  9990", "line2": "2 55926  70.0005 319.7696 0003162 268.2850  91.7947 14.98329325183279"}, {"name": "STARLINK-5919", "line1": "1 55927U 23037P   26197.82592603  .00000328  00000+0  35307-4 0  9997", "line2": "2 55927  70.0005 338.7339 0003129 268.3570  91.7231 14.98332528182823"}, {"name": "STARLINK-5930", "line1": "1 55928U 23037Q   26197.82158981  .00000072  00000+0  13800-4 0  9995", "line2": "2 55928  70.0001 338.7174 0002835 268.5943  91.4892 14.98330952182836"}, {"name": "STARLINK-5896", "line1": "1 55930U 23037S   26197.61691118  .00003681  00000+0  31606-3 0  9991", "line2": "2 55930  70.0017 319.3325 0003213 269.2527  90.8264 14.98334493183297"}, {"name": "STARLINK-5897", "line1": "1 55931U 23037T   26197.81741494  .00000015  00000+0  90488-5 0  9990", "line2": "2 55931  70.0000 338.7028 0002948 265.6476  94.4347 14.98329415182831"}, {"name": "STARLINK-5848", "line1": "1 55932U 23037U   26197.70846123 -.00002863  00000+0 -23217-3 0  9993", "line2": "2 55932  70.0002 298.9648 0003447 271.7805  88.2960 14.98334405183803"}, {"name": "STARLINK-5852", "line1": "1 55933U 23037V   26197.57518046 -.00012552  00000+0 -10442-2 0  9990", "line2": "2 55933  70.0005 319.5881 0004196 264.8037  95.2644 14.98393605183284"}, {"name": "STARLINK-5927", "line1": "1 55934U 23037W   26197.61707561  .00000265  00000+0  30006-4 0  9994", "line2": "2 55934  70.0001 319.3295 0003255 269.2727  90.8059 14.98329523183298"}, {"name": "STARLINK-5920", "line1": "1 55935U 23037X   26197.77130271 -.00000172  00000+0 -65991-5 0  9991", "line2": "2 55935  70.0003 319.0656 0003139 267.7677  92.3122 14.98328000183317"}, {"name": "STARLINK-5882", "line1": "1 55936U 23037Y   26197.71263866 -.00000024  00000+0  57566-5 0  9997", "line2": "2 55936  69.9997 298.9781 0003186 270.1313  89.9481 14.98329526183806"}, {"name": "STARLINK-5913", "line1": "1 55937U 23037Z   26197.50008696  .00000136  00000+0  19212-4 0  9991", "line2": "2 55937  70.0000 319.7238 0003234 268.4003  91.6786 14.98329458183277"}, {"name": "STARLINK-5909", "line1": "1 55938U 23037AA  26197.76295314  .00000415  00000+0  42566-4 0  9993", "line2": "2 55938  70.0001 319.0363 0003129 269.6090  90.4710 14.98336402183319"}]