OBJECT_NAME,OBJECT_ID,EPOCH,MEAN_MOTION,ECCENTRICITY,INCLINATION,RA_OF_ASC_NODE,ARG_OF_PERICENTER,MEAN_ANOMALY,EPHEMERIS_TYPE,CLASSIFICATION_TYPE,NORAD_CAT_ID,ELEMENT_SET_NO,REV_AT_EPOCH,BSTAR,MEAN_MOTION_DOT,MEAN_MOTION_DDOT
STARLINK-5818,2023-028AW,2026-07-17T01:53:58.247232,14.98329838,.0003219,69.9981,238.3692,270.5931,89.4860,0,U,55785,999,18640,.30058E-4,.266E-5,0
STARLINK-5823,2023-028AX,2026-07-17T04:00:01.998720,14.98353325,.0003581,70.0001,238.0729,264.3580,275.2396,0,U,55786,999,570,-.1883E-2,-.22504E-3,0
STARLINK-5811,2023-028AY,2026-07-17T01:47:57.185088,14.98332299,.0003674,69.9982,238.3542,268.2693,91.8045,0,U,55787,999,18640,-.54353E-5,-.158E-5,0
STARLINK-5804,2023-028AZ,2026-07-17T01:41:56.681088,14.98329958,.0003371,69.9986,238.3400,265.1776,94.8998,0,U,55788,999,18640,-.37231E-5,-.137E-5,0
STARLINK-5815,2023-028BA,2026-07-16T13:52:56.396928,14.98329877,.0003763,69.9979,239.4300,268.6688,91.4040,0,U,55789,999,18633,-.78796E-6,-.103E-5,0
STARLINK-5813,2023-028BB,2026-07-16T12:23:03.537024,14.98331128,.0003071,69.9984,239.6157,265.6461,94.4347,0,U,55790,999,18632,-.45978E-4,-.642E-5,0
STARLINK-5807,2023-028BC,2026-07-16T12:40:50.812032,14.98329840,.0004129,69.9979,239.6567,266.1782,93.8904,0,U,55791,999,18632,.21594E-4,.164E-5,0
STARLINK-5856,2023-037A,2026-07-16T14:30:40.843296,14.98330597,.0002796,70.0000,339.5679,269.5308,90.5530,0,U,55914,999,18348,.81481E-5,.4E-7,0
STARLINK-5859,2023-037B,2026-07-16T18:55:02.506080,14.98329914,.0003133,70.0008,339.0040,266.6052,93.4748,0,U,55915,999,18350,.34416E-5,-.52E-6,0
STARLINK-5796,2023-037C,2026-07-16T14:24:40.195008,14.98329240,.0003182,69.9999,339.5530,267.3680,92.7115,0,U,55916,999,18279,.30657E-4,.273E-5,0
STARLINK-5867,2023-037E,2026-07-16T19:07:03.813888,14.98332463,.000311,70.0003,339.0337,265.2386,94.8418,0,U,55918,999,18282,-.29976E-4,-.451E-5,0
STARLINK-5871,2023-037F,2026-07-16T15:43:00.577056,14.98328821,.0003093,70.0009,339.3414,266.6584,93.4221,0,U,55919,999,18280,-.10619E-4,-.22E-5,0
STARLINK-5862,2023-037G,2026-07-16T17:24:36.527328,14.98333494,.0002837,70.0002,319.3076,276.8242,83.2595,0,U,55920,999,18330,.122E-4,.53E-6,0
STARLINK-5861,2023-037H,2026-07-16T18:30:59.829120,14.98334176,.00031,70.0010,338.9464,266.9921,93.0883,0,U,55921,999,18282,-.54414E-4,-.742E-5,0
STARLINK-5863,2023-037J,2026-07-16T18:37:00.594048,14.98329857,.000295,70.0009,338.9610,267.4855,92.5966,0,U,55922,999,18282,-.22838E-4,-.365E-5,0
STARLINK-5854,2023-037K,2026-07-16T15:30:46.448352,14.98323684,.0003358,70.0005,339.3102,269.1579,90.9195,0,U,55923,999,18280,-.14447E-4,-.265E-5,0
STARLINK-5849,2023-037L,2026-07-16T14:06:18.760032,14.98330262,.0003367,70.0007,319.6295,267.3173,92.7600,0,U,55924,999,18328,.11322E-5,-.8E-6,0
STARLINK-5922,2023-037M,2026-07-16T20:01:07.027104,14.98334615,.0003147,70.0009,338.7627,264.7852,95.2948,0,U,55925,999,18283,-.26539E-4,-.41E-5,0
STARLINK-5921,2023-037N,2026-07-16T12:18:09.429696,14.98329325,.0003162,70.0005,319.7696,268.2850,91.7947,0,U,55926,999,18327,.26176E-5,-.62E-6,0
STARLINK-5919,2023-037P,2026-07-16T19:49:20.008992,14.98332528,.0003129,70.0005,338.7339,268.3570,91.7231,0,U,55927,999,18282,.35307E-4,.328E-5,0
STARLINK-5930,2023-037Q,2026-07-16T19:43:05.359584,14.98330952,.0002835,70.0001,338.7174,268.5943,91.4892,0,U,55928,999,18283,.138E-4,.72E-6,0
STARLINK-5896,2023-037S,2026-07-16T14:48:21.125952,14.98334493,.0003213,70.0017,319.3325,269.2527,90.8264,0,U,55930,999,18329,.31606E-3,.3681E-4,0
STARLINK-5897,2023-037T,2026-07-16T19:37:04.650816,14.98329415,.0002948,70.0000,338.7028,265.6476,94.4347,0,U,55931,999,18283,.90488E-5,.15E-6,0
STARLINK-5848,2023-037U,2026-07-16T17:00:11.050272,14.98334405,.0003447,70.0002,298.9648,271.7805,88.2960,0,U,55932,999,18380,-.23217E-3,-.2863E-4,0
STARLINK-5852,2023-037V,2026-07-16T13:48:15.591744,14.98393605,.0004196,70.0005,319.5881,264.8037,95.2644,0,U,55933,999,18328,-.10442E-2,-.12552E-3,0
STARLINK-5927,2023-037W,2026-07-16T14:48:35.332704,14.98329523,.0003255,70.0001,319.3295,269.2727,90.8059,0,U,55934,999,18329,.30006E-4,.265E-5,0
STARLINK-5920,2023-037X,2026-07-16T18:30:40.554144,14.98328000,.0003139,70.0003,319.0656,267.7677,92.3122,0,U,55935,999,18331,-.65991E-5,-.172E-5,0
STARLINK-5882,2023-037Y,2026-07-16T17:06:11.980224,14.98329526,.0003186,69.9997,298.9781,270.1313,89.9481,0,U,55936,999,18380,.57566E-5,-.24E-6,0
STARLINK-5913,2023-037Z,2026-07-16T12:00:07.513344,14.98329458,.0003234,70.0000,319.7238,268.4003,91.6786,0,U,55937,999,18327,.19212E-4,.136E-5,0
STARLINK-5909,2023-037AA,2026-07-16T18:18:39.151296,14.98336402,.0003129,70.0001,319.0363,269.6090,90.4710,0,U,55938,999,18331,.42566E-4,.415E-5,0
